STARLINK-1256
1 25401C 20019AT  21325.11145887  .00000426  00000-0  28518-4 0  3257
2 25401  53.0541 342.7343 0001724  59.7222 221.3252 15.06406662    15
